[{"OBJECT_NAME":"OBJECT C","OBJECT_ID":"2024-085C","EPOCH":"2026-03-09T22:49:58.289376","MEAN_MOTION":15.31893958,"ECCENTRICITY":0.00283931,"INCLINATION":97.3357,"RA_OF_ASC_NODE":145.6975,"ARG_OF_PERICENTER":37.3887,"MEAN_ANOMALY":322.9323,"EPHEMERIS_TYPE":0,"CLASSIFICATION_TYPE":"U","NORAD_CAT_ID":59679,"ELEMENT_SET_NO":999,"REV_AT_EPOCH":10244,"BSTAR":0.00039740634,"MEAN_MOTION_DOT":0.0001232,"MEAN_MOTION_DDOT":0},{"OBJECT_NAME":"OPS 0252","OBJECT_ID":"1983-008A","EPOCH":"2026-03-09T17:05:48.785280","MEAN_MOTION":13.86595094,"ECCENTRICITY":0.06891162,"INCLINATION":63.3075,"RA_OF_ASC_NODE":208.1784,"ARG_OF_PERICENTER":134.6802,"MEAN_ANOMALY":231.2568,"EPHEMERIS_TYPE":0,"CLASSIFICATION_TYPE":"U","NORAD_CAT_ID":13791,"ELEMENT_SET_NO":999,"REV_AT_EPOCH":9249,"BSTAR":0.00087750094,"MEAN_MOTION_DOT":7.26e-5,"MEAN_MOTION_DDOT":0}]
